R2                      
1 46913U 20081J   26094.26011261  .00014262  00000+0  57176-3 0  9997
2 46913  36.8966 156.3985 0005823   2.3583 357.7193 15.24358619300696
KSM1-B                  
1 46914U 20081K   26094.59034102  .00014118  00000+0  58080-3 0  9998
2 46914  36.9015 160.9640 0004368   3.3301 356.7475 15.23501992300958
GONETS-M 20             
1 47227U 20091A   26094.27103910  .00000007  00000+0 -17151-4 0  9994
2 47227  82.5100 348.3908 0021066 344.6925  15.3515 12.42891103241898
GONETS-M 21             
1 47228U 20091B   26094.24445819  .00000076  00000+0  47617-3 0  9993
2 47228  82.5025 347.1601 0015141 359.8771   0.2302 12.42882372241880
GONETS-M 22             
1 47229U 20091C   26094.29838838 -.00000017  00000+0 -19183-3 0  9990
2 47229  82.5081 347.9904 0021825 339.8089  20.2126 12.42888787241841
CUBEL                   
1 47448U 21006AM  26094.10765002  .00016407  00000+0  41513-3 0  9992
2 47448  97.2420 145.4457 0008492  84.5448 275.6767 15.39800233288359
ASTROCAST-0103          
1 47487U 21006CC  26094.15980238  .00230613  00000+0  11898-2 0  9999
2 47487  97.2598 164.7497 0004231 151.6145 208.5354 15.80500117289535
ARKTIKA-M 1             
1 47719U 21016A   26086.24697042 -.00000098  00000+0  00000+0 0  9990
2 47719  63.2179  69.3783 7253959 269.5617  15.0995  2.00616454 37142
STARLINK-2342           
1 47883U 21021Z   26094.27927727  .00112434  00000+0  20591-2 0  9993
2 47883  53.1578 146.1655 0004112  38.5389 321.5913 15.48480768280389
GRUS-1B                 
1 47934U 21022C   26094.27625355  .00002368  00000+0  20069-3 0  9998
2 47934  97.5465 339.8696 0016304 206.2687 153.7711 14.98803290274826
2021-022F               
1 47937U 21022F   26094.26878674  .00017410  00000+0  56655-3 0  9998
2 47937  97.3959 355.0691 0009975   7.2280 352.9104 15.31885967278398
UNISAT-7                
1 47945U 21022P   26094.25500489  .00025804  00000+0  67842-3 0  9998
2 47945  97.3950 358.4977 0008808 353.1382   6.9741 15.38530696278488
2021-022X               
1 47953U 21022X   26094.29959130  .00114636  00000+0  12491-2 0  9993
2 47953  97.3957   7.3517 0003513 352.2426   7.8777 15.63023557278920
2021-022AC              
1 47958U 21022AC  26093.10083505  .00243899  00000+0  14737-2 0  9990
2 47958  97.3881   9.3859 0001013  35.1637 324.9696 15.76932120278063
GLOBAL-9                
1 47971U 21023G   26094.61717458  .00028147  00000+0  61416-3 0  9998
2 47971  44.9821 303.1301 0004115 226.4519 133.6029 15.43768050283566
AII-BRAVO               
1 48270U 21034C   26094.13158792  .00009195  00000+0  68881-3 0  9995
2 48270  97.5688 150.7368 0007062 141.3531 218.8201 15.02901511268495
TYVAK-182A              
1 48271U 21034D   26094.23718189  .00010550  00000+0  73740-3 0  9996
2 48271  97.5794 154.4516 0005276 209.2212 150.8721 15.05480268268705
