[{"OBJECT_NAME":"R2","OBJECT_ID":"2020-081J","EPOCH":"2026-04-04T06:14:33.729504","MEAN_MOTION":15.24358619,"ECCENTRICITY":0.00058231,"INCLINATION":36.8966,"RA_OF_ASC_NODE":156.3985,"ARG_OF_PERICENTER":2.3583,"MEAN_ANOMALY":357.7193,"EPHEMERIS_TYPE":0,"CLASSIFICATION_TYPE":"U","NORAD_CAT_ID":46913,"ELEMENT_SET_NO":999,"REV_AT_EPOCH":30069,"BSTAR":0.00057176244,"MEAN_MOTION_DOT":0.00014262,"MEAN_MOTION_DDOT":0},{"OBJECT_NAME":"KSM1-B","OBJECT_ID":"2020-081K","EPOCH":"2026-04-04T14:10:05.464128","MEAN_MOTION":15.23501992,"ECCENTRICITY":0.0004368,"INCLINATION":36.9015,"RA_OF_ASC_NODE":160.964,"ARG_OF_PERICENTER":3.3301,"MEAN_ANOMALY":356.7475,"EPHEMERIS_TYPE":0,"CLASSIFICATION_TYPE":"U","NORAD_CAT_ID":46914,"ELEMENT_SET_NO":999,"REV_AT_EPOCH":30095,"BSTAR":0.0005808,"MEAN_MOTION_DOT":0.00014118,"MEAN_MOTION_DDOT":0},{"OBJECT_NAME":"GONETS-M 20","OBJECT_ID":"2020-091A","EPOCH":"2026-04-04T06:30:17.778240","MEAN_MOTION":12.42891103,"ECCENTRICITY":0.00210662,"INCLINATION":82.51,"RA_OF_ASC_NODE":348.3908,"ARG_OF_PERICENTER":344.6925,"MEAN_ANOMALY":15.3515,"EPHEMERIS_TYPE":0,"CLASSIFICATION_TYPE":"U","NORAD_CAT_ID":47227,"ELEMENT_SET_NO":999,"REV_AT_EPOCH":24189,"BSTAR":-1.7150795e-5,"MEAN_MOTION_DOT":7.0e-8,"MEAN_MOTION_DDOT":0},{"OBJECT_NAME":"GONETS-M 21","OBJECT_ID":"2020-091B","EPOCH":"2026-04-04T05:52:01.187616","MEAN_MOTION":12.42882372,"ECCENTRICITY":0.00151414,"INCLINATION":82.5025,"RA_OF_ASC_NODE":347.1601,"ARG_OF_PERICENTER":359.8771,"MEAN_ANOMALY":0.2302,"EPHEMERIS_TYPE":0,"CLASSIFICATION_TYPE":"U","NORAD_CAT_ID":47228,"ELEMENT_SET_NO":999,"REV_AT_EPOCH":24188,"BSTAR":0.00047616974,"MEAN_MOTION_DOT":7.6e-7,"MEAN_MOTION_DDOT":0},{"OBJECT_NAME":"GONETS-M 22","OBJECT_ID":"2020-091C","EPOCH":"2026-04-04T07:09:40.756032","MEAN_MOTION":12.42888787,"ECCENTRICITY":0.00218252,"INCLINATION":82.5081,"RA_OF_ASC_NODE":347.9904,"ARG_OF_PERICENTER":339.8089,"MEAN_ANOMALY":20.2126,"EPHEMERIS_TYPE":0,"CLASSIFICATION_TYPE":"U","NORAD_CAT_ID":47229,"ELEMENT_SET_NO":999,"REV_AT_EPOCH":24184,"BSTAR":-0.00019183427,"MEAN_MOTION_DOT":-1.7e-7,"MEAN_MOTION_DDOT":0},{"OBJECT_NAME":"CUBEL","OBJECT_ID":"2021-006AM","EPOCH":"2026-04-04T02:35:00.961728","MEAN_MOTION":15.39800233,"ECCENTRICITY":0.00084929,"INCLINATION":97.242,"RA_OF_ASC_NODE":145.4457,"ARG_OF_PERICENTER":84.5448,"MEAN_ANOMALY":275.6767,"EPHEMERIS_TYPE":0,"CLASSIFICATION_TYPE":"U","NORAD_CAT_ID":47448,"ELEMENT_SET_NO":999,"REV_AT_EPOCH":28835,"BSTAR":0.0004151318,"MEAN_MOTION_DOT":0.00016407,"MEAN_MOTION_DDOT":0},{"OBJECT_NAME":"ASTROCAST-0103","OBJECT_ID":"2021-006CC","EPOCH":"2026-04-04T03:50:06.925632","MEAN_MOTION":15.80500117,"ECCENTRICITY":0.00042319,"INCLINATION":97.2598,"RA_OF_ASC_NODE":164.7497,"ARG_OF_PERICENTER":151.6145,"MEAN_ANOMALY":208.5354,"EPHEMERIS_TYPE":0,"CLASSIFICATION_TYPE":"U","NORAD_CAT_ID":47487,"ELEMENT_SET_NO":999,"REV_AT_EPOCH":28953,"BSTAR":0.001189753,"MEAN_MOTION_DOT":0.00230613,"MEAN_MOTION_DDOT":0},{"OBJECT_NAME":"ARKTIKA-M 1","OBJECT_ID":"2021-016A","EPOCH":"2026-03-27T05:55:38.244288","MEAN_MOTION":2.00616454,"ECCENTRICITY":0.7253959,"INCLINATION":63.2179,"RA_OF_ASC_NODE":69.3783,"ARG_OF_PERICENTER":269.5617,"MEAN_ANOMALY":15.0995,"EPHEMERIS_TYPE":0,"CLASSIFICATION_TYPE":"U","NORAD_CAT_ID":47719,"ELEMENT_SET_NO":999,"REV_AT_EPOCH":3714,"BSTAR":0,"MEAN_MOTION_DOT":-9.8e-7,"MEAN_MOTION_DDOT":0},{"OBJECT_NAME":"STARLINK-2342","OBJECT_ID":"2021-021Z","EPOCH":"2026-04-04T06:42:09.556128","MEAN_MOTION":15.48480768,"ECCENTRICITY":0.00041122,"INCLINATION":53.1578,"RA_OF_ASC_NODE":146.1655,"ARG_OF_PERICENTER":38.5389,"MEAN_ANOMALY":321.5913,"EPHEMERIS_TYPE":0,"CLASSIFICATION_TYPE":"U","NORAD_CAT_ID":47883,"ELEMENT_SET_NO":999,"REV_AT_EPOCH":28038,"BSTAR":0.0020590983,"MEAN_MOTION_DOT":0.00112434,"MEAN_MOTION_DDOT":0},{"OBJECT_NAME":"GRUS-1B","OBJECT_ID":"2021-022C","EPOCH":"2026-04-04T06:37:48.306720","MEAN_MOTION":14.9880329,"ECCENTRICITY":0.00163047,"INCLINATION":97.5465,"RA_OF_ASC_NODE":339.8696,"ARG_OF_PERICENTER":206.2687,"MEAN_ANOMALY":153.7711,"EPHEMERIS_TYPE":0,"CLASSIFICATION_TYPE":"U","NORAD_CAT_ID":47934,"ELEMENT_SET_NO":999,"REV_AT_EPOCH":27482,"BSTAR":0.00020068696,"MEAN_MOTION_DOT":2.368e-5,"MEAN_MOTION_DDOT":0},{"OBJECT_NAME":"2021-022F","OBJECT_ID":"2021-022F","EPOCH":"2026-04-04T06:27:03.174336","MEAN_MOTION":15.31885967,"ECCENTRICITY":0.00099754,"INCLINATION":97.3959,"RA_OF_ASC_NODE":355.0691,"ARG_OF_PERICENTER":7.228,"MEAN_ANOMALY":352.9104,"EPHEMERIS_TYPE":0,"CLASSIFICATION_TYPE":"U","NORAD_CAT_ID":47937,"ELEMENT_SET_NO":999,"REV_AT_EPOCH":27839,"BSTAR":0.00056655053,"MEAN_MOTION_DOT":0.0001741,"MEAN_MOTION_DDOT":0},{"OBJECT_NAME":"UNISAT-7","OBJECT_ID":"2021-022P","EPOCH":"2026-04-04T06:07:12.422496","MEAN_MOTION":15.38530696,"ECCENTRICITY":0.00088087,"INCLINATION":97.395,"RA_OF_ASC_NODE":358.4977,"ARG_OF_PERICENTER":353.1382,"MEAN_ANOMALY":6.9741,"EPHEMERIS_TYPE":0,"CLASSIFICATION_TYPE":"U","NORAD_CAT_ID":47945,"ELEMENT_SET_NO":999,"REV_AT_EPOCH":27848,"BSTAR":0.0006784179,"MEAN_MOTION_DOT":0.00025804,"MEAN_MOTION_DDOT":0},{"OBJECT_NAME":"2021-022X","OBJECT_ID":"2021-022X","EPOCH":"2026-04-04T07:11:24.688320","MEAN_MOTION":15.63023557,"ECCENTRICITY":0.00035133,"INCLINATION":97.3957,"RA_OF_ASC_NODE":7.3517,"ARG_OF_PERICENTER":352.2426,"MEAN_ANOMALY":7.8777,"EPHEMERIS_TYPE":0,"CLASSIFICATION_TYPE":"U","NORAD_CAT_ID":47953,"ELEMENT_SET_NO":999,"REV_AT_EPOCH":27892,"BSTAR":0.0012491274,"MEAN_MOTION_DOT":0.00114636,"MEAN_MOTION_DDOT":0},{"OBJECT_NAME":"2021-022AC","OBJECT_ID":"2021-022AC","EPOCH":"2026-04-03T02:25:12.148320","MEAN_MOTION":15.7693212,"ECCENTRICITY":0.00010134,"INCLINATION":97.3881,"RA_OF_ASC_NODE":9.3859,"ARG_OF_PERICENTER":35.1637,"MEAN_ANOMALY":324.9696,"EPHEMERIS_TYPE":0,"CLASSIFICATION_TYPE":"U","NORAD_CAT_ID":47958,"ELEMENT_SET_NO":999,"REV_AT_EPOCH":27806,"BSTAR":0.0014736667,"MEAN_MOTION_DOT":0.00243899,"MEAN_MOTION_DDOT":0},{"OBJECT_NAME":"GLOBAL-9","OBJECT_ID":"2021-023G","EPOCH":"2026-04-04T14:48:43.883712","MEAN_MOTION":15.4376805,"ECCENTRICITY":0.0004115,"INCLINATION":44.9821,"RA_OF_ASC_NODE":303.1301,"ARG_OF_PERICENTER":226.4519,"MEAN_ANOMALY":133.6029,"EPHEMERIS_TYPE":0,"CLASSIFICATION_TYPE":"U","NORAD_CAT_ID":47971,"ELEMENT_SET_NO":999,"REV_AT_EPOCH":28356,"BSTAR":0.00061416,"MEAN_MOTION_DOT":0.00028147,"MEAN_MOTION_DDOT":0},{"OBJECT_NAME":"AII-BRAVO","OBJECT_ID":"2021-034C","EPOCH":"2026-04-04T03:09:29.196288","MEAN_MOTION":15.02901511,"ECCENTRICITY":0.00070626,"INCLINATION":97.5688,"RA_OF_ASC_NODE":150.7368,"ARG_OF_PERICENTER":141.3531,"MEAN_ANOMALY":218.8201,"EPHEMERIS_TYPE":0,"CLASSIFICATION_TYPE":"U","NORAD_CAT_ID":48270,"ELEMENT_SET_NO":999,"REV_AT_EPOCH":26849,"BSTAR":0.00068880891,"MEAN_MOTION_DOT":9.195e-5,"MEAN_MOTION_DDOT":0},{"OBJECT_NAME":"TYVAK-182A","OBJECT_ID":"2021-034D","EPOCH":"2026-04-04T05:41:32.515296","MEAN_MOTION":15.05480268,"ECCENTRICITY":0.00052768,"INCLINATION":97.5794,"RA_OF_ASC_NODE":154.4516,"ARG_OF_PERICENTER":209.2212,"MEAN_ANOMALY":150.8721,"EPHEMERIS_TYPE":0,"CLASSIFICATION_TYPE":"U","NORAD_CAT_ID":48271,"ELEMENT_SET_NO":999,"REV_AT_EPOCH":26870,"BSTAR":0.00073739813,"MEAN_MOTION_DOT":0.0001055,"MEAN_MOTION_DDOT":0}]
